OBJECT_NAME,OBJECT_ID,EPOCH,MEAN_MOTION,ECCENTRICITY,INCLINATION,RA_OF_ASC_NODE,ARG_OF_PERICENTER,MEAN_ANOMALY,EPHEMERIS_TYPE,CLASSIFICATION_TYPE,NORAD_CAT_ID,ELEMENT_SET_NO,REV_AT_EPOCH,BSTAR,MEAN_MOTION_DOT,MEAN_MOTION_DDOT
TDRS 3,1988-091B,2026-06-14T09:27:07.125408,1.00274022,.00384015,12.6041,341.0208,355.9953,18.6236,0,U,19548,999,12536,0,-.299E-5,0
FLTSATCOM 8 (USA 46),1989-077A,2026-06-14T15:09:40.488768,1.00278810,.00045103,12.4225,351.1808,53.9461,210.8561,0,U,20253,999,26053,0,-.369E-5,0
SKYNET 4C,1990-079A,2026-06-11T04:50:51.491040,1.00274124,.0002401,13.3423,349.8525,96.2300,279.5546,0,U,20776,999,13083,0,.132E-5,0
TDRS 5,1991-054B,2026-06-14T15:12:26.280000,1.00273079,.00064298,14.0716,353.7982,274.6959,54.8494,0,U,21639,999,12768,0,.81E-6,0
TDRS 6,1993-003B,2026-06-14T09:27:59.540832,1.00272404,.00078062,14.1828,357.0810,177.9743,183.8349,0,U,22314,999,12238,0,-.298E-5,0
UFO 2 (USA 95),1993-056A,2026-06-14T04:41:17.376000,1.00275298,.000598,11.8938,3.5731,7.7846,350.1103,0,U,22787,999,11851,0,.124E-5,0
USA 99 (MILSTAR-1 1),1994-009A,2026-06-14T06:21:54.991584,0.98722322,.00011252,17.6225,27.7366,216.3461,135.2589,0,U,22988,999,3291,0,-.114E-5,0
UFO 4 (USA 108),1995-003A,2026-06-14T14:02:23.947296,1.00272150,.00031311,9.6994,13.2405,64.2873,208.1229,0,U,23467,999,11492,0,-.24E-6,0
TDRS 7,1995-035B,2026-06-14T15:36:48.384000,1.00265131,.00110833,13.3782,348.2090,77.9619,159.8846,0,U,23613,999,11322,0,-.239E-5,0
USA 115 (MILSTAR-1 2),1995-060A,2026-06-14T13:58:43.546944,1.00364609,.00015279,14.0720,3.7685,143.5162,230.1918,0,U,23712,999,3286,0,-.19E-5,0
INMARSAT 3-F1,1996-020A,2026-06-14T13:57:10.552032,0.99978992,.000374,10.5959,46.6597,47.5322,285.5643,0,U,23839,999,11022,0,-.137E-5,0
INMARSAT 3-F2,1996-053A,2026-06-14T15:00:10.895904,1.00003616,.00067448,9.8515,53.9639,27.7276,198.1283,0,U,24307,999,10889,0,-.242E-5,0
INMARSAT 3-F3,1996-070A,2026-06-13T19:20:38.571936,0.99980849,.00034358,10.3113,49.6870,21.5651,167.0726,0,U,24674,999,10787,0,.134E-5,0
AMC-3,1997-050A,2026-06-14T14:11:25.302048,0.99061054,.00040265,8.1580,64.0136,26.1234,266.5637,0,U,24936,999,5240,0,.66E-6,0
USA 134,1997-065A,2026-06-14T14:07:12.080928,1.00269108,.00033245,12.7811,21.7426,335.5639,5.1245,0,U,25019,999,3292,0,-.66E-6,0
INMARSAT 3-F5,1998-006B,2026-06-14T02:35:01.608000,1.00268796,.00044105,9.6864,53.2900,26.4623,167.4264,0,U,25153,999,10386,0,-.29E-5,0
ABS-6,1999-053A,2026-06-14T15:03:42.904224,1.00269128,.00035524,0.0316,41.5659,61.7962,184.4910,0,U,25924,999,9781,0,0,0
UFO 10 (USA 146),1999-063A,2026-06-14T09:34:36.407136,1.00271694,.00020506,9.8460,27.2269,34.4628,321.7351,0,U,25967,999,9731,0,-.189E-5,0
ASIASTAR,2000-016A,2026-06-14T15:33:59.725152,1.00269907,.00043918,9.1237,58.1809,26.2608,157.0171,0,U,26107,999,9589,0,-.335E-5,0
USA 149 (DSP 20),2000-024A,2026-06-14T09:25:03.399744,1.00273447,.00018733,13.1685,11.8726,305.8568,280.8231,0,U,26356,999,3288,0,.91E-6,0
TDRS 8,2000-034A,2026-06-14T15:13:13.662624,1.00267656,.00046691,12.6797,31.3448,17.3378,167.2007,0,U,26388,999,9515,0,-.197E-5,0
NSS-11,2000-059A,2026-06-14T13:16:38.513856,1.00270537,.00027948,2.1198,81.4196,348.5104,208.0790,0,U,26554,999,4126,0,.3E-6,0
USA 153,2000-065A,2026-06-14T15:57:59.404896,1.00270043,.00029988,11.6203,35.4433,47.1332,194.3859,0,U,26575,999,3290,0,-.328E-5,0
AMC-6,2000-067A,2026-06-14T14:20:58.389792,1.00272442,.00034384,0.1459,83.0708,12.0648,247.9673,0,U,26580,999,9386,0,.95E-6,0
USA 157 (MILSTAR-2 2),2001-009A,2026-06-14T09:38:09.727008,1.00273362,.00393436,11.5396,19.7820,177.6123,59.7727,0,U,26715,999,3291,0,.108E-5,0
INTELSAT 902 (IS-902),2001-039A,2026-06-14T12:52:11.597376,1.00270945,.00044885,6.1108,71.8168,8.0143,325.9476,0,U,26900,999,9066,0,-.281E-5,0
USA 164 (MILSTAR-2 3),2002-001A,2026-06-14T06:21:10.063584,1.00276336,.00989562,11.1761,21.9254,8.3094,346.6344,0,U,27168,999,3292,0,.97E-6,0
INTELSAT 904 (IS-904),2002-007A,2026-06-14T03:52:00.964992,1.00271167,.00064628,6.9124,69.2201,4.1571,215.6025,0,U,27380,999,5173,0,-.223E-5,0
DIRECTV 5 (TEMPO 1),2002-023A,2026-06-14T14:06:59.119200,1.00271434,.00032193,4.8712,75.3418,22.0501,267.1359,0,U,27426,999,8809,0,-.54E-6,0
INTELSAT 905 (IS-905),2002-027A,2026-06-14T14:21:31.285728,1.00272386,.00037977,6.7471,69.8304,20.9273,250.3045,0,U,27438,999,5133,0,.95E-6,0
GALAXY 3C (G-3C),2002-030A,2026-06-14T14:22:01.729632,1.00271083,.00015209,3.7249,78.0091,34.3645,271.1797,0,U,27445,999,4646,0,-.149E-5,0
